{
  "norad_id": 47391,
  "name": "STARLINK-2112",
  "history": [
    {
      "epoch": "2026-03-28T21:33:12.859200",
      "apogee_km": 548.1140647019511,
      "perigee_km": 546.2465836323163,
      "latitude_deg": -48.80883325318109,
      "longitude_deg": 85.31428800011054,
      "semi_major_axis_km": 6925.317324167134,
      "eccentricity": 0.00013483,
      "inclination_deg": 53.0549,
      "raan_deg": 305.3875,
      "arg_perigee_deg": 95.6343,
      "mean_anomaly_deg": 264.48,
      "mean_motion_rev_day": 15.06410191
    }
  ]
}