{"fetched_at":"2026-03-29T16:36:15Z","count":15609,"tles":[{"name":"STARLINK-2112","line1":"1 47391U 21005AU  26087.89806550  .00000846  00000+0  75695-4 0  9999","line2":"2 47391  53.0549 305.3875 0001348  95.6343 264.4800 15.06410191286355","category":"Starlink"}]}